{
  "type": "FeatureCollection",
  "features": [
    {
      "type": "Feature",
      "properties": {
        "norad_id": 43286,
        "name": "IRNSS-1I",
        "group": "gnss",
        "lat": -26.952995341640698,
        "lon": 11.464528324985485,
        "alt_km": 35822.28897577234,
        "timestamp": "2025-12-08T15:42:50.033735+00:00",
        "meta_object_name": "IRNSS-1I",
        "meta_object_id": "2018-035A",
        "meta_epoch": "2025-12-07T20:44:32.673984",
        "meta_mean_motion": 1.00269085,
        "meta_eccentricity": 0.00219299,
        "meta_inclination": 29.1385,
        "meta_ra_of_asc_node": 77.1731,
        "meta_arg_of_pericenter": 181.2064,
        "meta_mean_anomaly": 184.6969,
        "meta_ephemeris_type": 0,
        "meta_classification_type": "U",
        "meta_norad_cat_id": 43286,
        "meta_element_set_no": 999,
        "meta_rev_at_epoch": 2816,
        "meta_bstar": 0,
        "meta_mean_motion_dot": 7.4e-07,
        "meta_mean_motion_ddot": 0,
        "tle_line1": "1 43286U 18035A   25341.86426706  .00000074  00000+0  00000+0 0  9993",
        "tle_line2": "2 43286  29.1385  77.1731 0021929 181.2064 184.6969  1.00269085 28165"
      },
      "geometry": {
        "type": "Point",
        "coordinates": [
          11.464528324985485,
          -26.952995341640698
        ]
      }
    },
    {
      "type": "Feature",
      "properties": {
        "norad_id": 43508,
        "name": "COSMOS 2527 (756)",
        "group": "gnss",
        "lat": 58.18714278149921,
        "lon": 127.57735836055082,
        "alt_km": 19143.83040276585,
        "timestamp": "2025-12-08T15:42:50.033750+00:00",
        "meta_object_name": "COSMOS 2527 (756)",
        "meta_object_id": "2018-053A",
        "meta_epoch": "2025-12-07T03:45:49.475232",
        "meta_mean_motion": 2.13102044,
        "meta_eccentricity": 0.00087312,
        "meta_inclination": 65.4694,
        "meta_ra_of_asc_node": 80.3184,
        "meta_arg_of_pericenter": 225.1381,
        "meta_mean_anomaly": 134.8008,
        "meta_ephemeris_type": 0,
        "meta_classification_type": "U",
        "meta_norad_cat_id": 43508,
        "meta_element_set_no": 999,
        "meta_rev_at_epoch": 5818,
        "meta_bstar": 0,
        "meta_mean_motion_dot": -1.2e-07,
        "meta_mean_motion_ddot": 0,
        "tle_line1": "1 43508U 18053A   25341.15682263 -.00000012  00000+0  00000+0 0  9997",
        "tle_line2": "2 43508  65.4694  80.3184 0008731 225.1381 134.8008  2.13102044 58184"
      },
      "geometry": {
        "type": "Point",
        "coordinates": [
          127.57735836055082,
          58.18714278149921
        ]
      }
    },
    {
      "type": "Feature",
      "properties": {
        "norad_id": 43539,
        "name": "BEIDOU-2 IGSO-7 (C16)",
        "group": "gnss",
        "lat": -53.950990367415656,
        "lon": 57.99828093444274,
        "alt_km": 35442.00182250764,
        "timestamp": "2025-12-08T15:42:50.033762+00:00",
        "meta_object_name": "BEIDOU-2 IGSO-7 (C16)",
        "meta_object_id": "2018-057A",
        "meta_epoch": "2025-12-07T10:43:46.663104",
        "meta_mean_motion": 1.0025846,
        "meta_eccentricity": 0.00925092,
        "meta_inclination": 55.1739,
        "meta_ra_of_asc_node": 164.7176,
        "meta_arg_of_pericenter": 235.2145,
        "meta_mean_anomaly": 308.6901,
        "meta_ephemeris_type": 0,
        "meta_classification_type": "U",
        "meta_norad_cat_id": 43539,
        "meta_element_set_no": 999,
        "meta_rev_at_epoch": 2720,
        "meta_bstar": 0,
        "meta_mean_motion_dot": -6.7e-07,
        "meta_mean_motion_ddot": 0,
        "tle_line1": "1 43539U 18057A   25341.44706786 -.00000067  00000+0  00000+0 0  9994",
        "tle_line2": "2 43539  55.1739 164.7176 0092509 235.2145 308.6901  1.00258460 27209"
      },
      "geometry": {
        "type": "Point",
        "coordinates": [
          57.99828093444274,
          -53.950990367415656
        ]
      }
    },
    {
      "type": "Feature",
      "properties": {
        "norad_id": 43564,
        "name": "GSAT0221 (GALILEO 25)",
        "group": "gnss",
        "lat": 31.84594617151205,
        "lon": 143.3377925611384,
        "alt_km": 23233.43698546253,
        "timestamp": "2025-12-08T15:42:50.033774+00:00",
        "meta_object_name": "GSAT0221 (GALILEO 25)",
        "meta_object_id": "2018-060A",
        "meta_epoch": "2025-12-06T15:57:28.986048",
        "meta_mean_motion": 1.70475679,
        "meta_eccentricity": 0.00066883,
        "meta_inclination": 57.2291,
        "meta_ra_of_asc_node": 346.9817,
        "meta_arg_of_pericenter": 281.5609,
        "meta_mean_anomaly": 78.3858,
        "meta_ephemeris_type": 0,
        "meta_classification_type": "U",
        "meta_norad_cat_id": 43564,
        "meta_element_set_no": 999,
        "meta_rev_at_epoch": 4588,
        "meta_bstar": 0,
        "meta_mean_motion_dot": -8.1e-07,
        "meta_mean_motion_ddot": 0,
        "tle_line1": "1 43564U 18060A   25340.66491882 -.00000081  00000+0  00000+0 0  9993",
        "tle_line2": "2 43564  57.2291 346.9817 0006688 281.5609  78.3858  1.70475679 45887"
      },
      "geometry": {
        "type": "Point",
        "coordinates": [
          143.3377925611384,
          31.84594617151205
        ]
      }
    },
    {
      "type": "Feature",
      "properties": {
        "norad_id": 43565,
        "name": "GSAT0222 (GALILEO 26)",
        "group": "gnss",
        "lat": 5.539389927262639,
        "lon": -9.48900925206229,
        "alt_km": 23226.385318246193,
        "timestamp": "2025-12-08T15:42:50.033785+00:00",
        "meta_object_name": "GSAT0222 (GALILEO 26)",
        "meta_object_id": "2018-060B",
        "meta_epoch": "2025-12-05T17:03:57.438144",
        "meta_mean_motion": 1.70475397,
        "meta_eccentricity": 0.00061787,
        "meta_inclination": 57.2328,
        "meta_ra_of_asc_node": 347.0105,
        "meta_arg_of_pericenter": 261.4004,
        "meta_mean_anomaly": 98.5552,
        "meta_ephemeris_type": 0,
        "meta_classification_type": "U",
        "meta_norad_cat_id": 43565,
        "meta_element_set_no": 999,
        "meta_rev_at_epoch": 4591,
        "meta_bstar": 0,
        "meta_mean_motion_dot": -7.7e-07,
        "meta_mean_motion_ddot": 0,
        "tle_line1": "1 43565U 18060B   25339.71108146 -.00000077  00000+0  00000+0 0  9991",
        "tle_line2": "2 43565  57.2328 347.0105 0006178 261.4004  98.5552  1.70475397 45917"
      },
      "geometry": {
        "type": "Point",
        "coordinates": [
          -9.48900925206229,
          5.539389927262639
        ]
      }
    },
    {
      "type": "Feature",
      "properties": {
        "norad_id": 43566,
        "name": "GSAT0219 (GALILEO 23)",
        "group": "gnss",
        "lat": -40.64743115651452,
        "lon": -159.49289116077634,
        "alt_km": 23217.039127972253,
        "timestamp": "2025-12-08T15:42:50.033796+00:00",
        "meta_object_name": "GSAT0219 (GALILEO 23)",
        "meta_object_id": "2018-060C",
        "meta_epoch": "2025-12-07T16:36:27.181728",
        "meta_mean_motion": 1.7047564,
        "meta_eccentricity": 0.00057893,
        "meta_inclination": 57.2316,
        "meta_ra_of_asc_node": 346.9585,
        "meta_arg_of_pericenter": 285.9629,
        "meta_mean_anomaly": 73.992,
        "meta_ephemeris_type": 0,
        "meta_classification_type": "U",
        "meta_norad_cat_id": 43566,
        "meta_element_set_no": 999,
        "meta_rev_at_epoch": 4592,
        "meta_bstar": 0,
        "meta_mean_motion_dot": -8.4e-07,
        "meta_mean_motion_ddot": 0,
        "tle_line1": "1 43566U 18060C   25341.69198127 -.00000084  00000+0  00000+0 0  9998",
        "tle_line2": "2 43566  57.2316 346.9585 0005789 285.9629  73.9920  1.70475640 45924"
      },
      "geometry": {
        "type": "Point",
        "coordinates": [
          -159.49289116077634,
          -40.64743115651452
        ]
      }
    },
    {
      "type": "Feature",
      "properties": {
        "norad_id": 43567,
        "name": "GSAT0220 (GALILEO 24)",
        "group": "gnss",
        "lat": 56.83974826401144,
        "lon": 86.55929498097629,
        "alt_km": 23233.702195063513,
        "timestamp": "2025-12-08T15:42:50.033807+00:00",
        "meta_object_name": "GSAT0220 (GALILEO 24)",
        "meta_object_id": "2018-060D",
        "meta_epoch": "2025-12-07T07:49:54.342624",
        "meta_mean_motion": 1.70475454,
        "meta_eccentricity": 0.00061757,
        "meta_inclination": 57.2312,
        "meta_ra_of_asc_node": 346.9681,
        "meta_arg_of_pericenter": 282.9528,
        "meta_mean_anomaly": 76.9979,
        "meta_ephemeris_type": 0,
        "meta_classification_type": "U",
        "meta_norad_cat_id": 43567,
        "meta_element_set_no": 999,
        "meta_rev_at_epoch": 4590,
        "meta_bstar": 0,
        "meta_mean_motion_dot": -8.3e-07,
        "meta_mean_motion_ddot": 0,
        "tle_line1": "1 43567U 18060D   25341.32632341 -.00000083  00000+0  00000+0 0  9999",
        "tle_line2": "2 43567  57.2312 346.9681 0006175 282.9528  76.9979  1.70475454 45901"
      },
      "geometry": {
        "type": "Point",
        "coordinates": [
          86.55929498097629,
          56.83974826401144
        ]
      }
    }
  ]
}